{"fetched_at":"2026-07-19T17:31:51.026Z","source":"https://celestrak.org/NORAD/elements/gp.php?NAME=RADARSAT&FORMAT=JSON","constellation":"radarsat-2","records":[{"OBJECT_NAME":"RADARSAT-2","OBJECT_ID":"2007-061A","EPOCH":"2026-07-19T07:03:54.407808","CLASSIFICATION_TYPE":"U","MEAN_MOTION":14.29983896,"ECCENTRICITY":0.00013269,"INCLINATION":98.5785,"RA_OF_ASC_NODE":206.7689,"ARG_OF_PERICENTER":84.4047,"MEAN_ANOMALY":275.7286,"EPHEMERIS_TYPE":0,"NORAD_CAT_ID":32382,"ELEMENT_SET_NO":999,"REV_AT_EPOCH":97054,"BSTAR":0.000042112742,"MEAN_MOTION_DOT":6.5e-7,"MEAN_MOTION_DDOT":0}]}
